start=new Date('2022-12-28T00:00:00.000Z').valueOf();
sats=[{"RA_OF_ASC_NODE":"284.3618","OBJECT_ID":"2021-036H","ELEMENT_SET_NO":"999","EPOCH":"2022-12-27T19:50:17.447712","TLE_LINE2":"2 48283  53.0553 284.3618 0001444  86.5172 273.5982 15.06404209 92875","SITE":"AFETR","OBJECT_NAME":"STARLINK-2516","SEMIMAJOR_AXIS":"6925.336","MEAN_MOTION_DOT":"0.00002578","MEAN_MOTION_DDOT":"0.0000000000000","NORAD_CAT_ID":"48283","ARG_OF_PERICENTER":"86.5172","CLASSIFICATION_TYPE":"U","FILE":"3723967","DECAY_DATE":null,"MEAN_ELEMENT_THEORY":"SGP4","INCLINATION":"53.0553","BSTAR":"0.00019189000000","LAUNCH_DATE":"2021-04-29","CENTER_NAME":"EARTH","REV_AT_EPOCH":"9287","MEAN_MOTION":"15.06404209","EPHEMERIS_TYPE":"0","MEAN_ANOMALY":"273.5982","REF_FRAME":"TEME","GP_ID":"221595221","OBJECT_TYPE":"PAYLOAD","TIME_SYSTEM":"UTC","TLE_LINE1":"1 48283U 21036H   22361.82659083  .00002578  00000-0  19189-3 0  9995","PERIAPSIS":"546.201","COUNTRY_CODE":"US","APOAPSIS":"548.201","RCS_SIZE":"MEDIUM","PERIOD":"95.592","ECCENTRICITY":"0.00014440"},{"MEAN_MOTION_DDOT":"0.0000000000000","MEAN_MOTION_DOT":"0.00002379","SEMIMAJOR_AXIS":"6925.310","OBJECT_NAME":"STARLINK-2564","SITE":"AFETR","TLE_LINE2":"2 48284  53.0567 284.3879 0001776 110.0619 250.0561 15.06412735 92288","EPOCH":"2022-12-27T19:44:59.072352","ELEMENT_SET_NO":"999","OBJECT_ID":"2021-036J","RA_OF_ASC_NODE":"284.3879","LAUNCH_DATE":"2021-04-29","BSTAR":"0.00017852000000","INCLINATION":"53.0567","FILE":"3724149","MEAN_ELEMENT_THEORY":"SGP4","DECAY_DATE":null,"CLASSIFICATION_TYPE":"U","ARG_OF_PERICENTER":"110.0619","NORAD_CAT_ID":"48284","COUNTRY_CODE":"US","PERIAPSIS":"545.945","TLE_LINE1":"1 48284U 21036J   22361.82290593  .00002379  00000-0  17852-3 0  9997","GP_ID":"221620621","OBJECT_TYPE":"PAYLOAD","TIME_SYSTEM":"UTC","REF_FRAME":"TEME","MEAN_ANOMALY":"250.0561","EPHEMERIS_TYPE":"0","REV_AT_EPOCH":"9228","MEAN_MOTION":"15.06412735","CENTER_NAME":"EARTH","ECCENTRICITY":"0.00017760","PERIOD":"95.591","RCS_SIZE":"LARGE","APOAPSIS":"548.404"},{"APOAPSIS":"548.364","ECCENTRICITY":"0.00017010","RCS_SIZE":"LARGE","PERIOD":"95.592","EPHEMERIS_TYPE":"0","MEAN_ANOMALY":"296.0648","REF_FRAME":"TEME","CENTER_NAME":"EARTH","MEAN_MOTION":"15.06408908","REV_AT_EPOCH":"9223","COUNTRY_CODE":"US","PERIAPSIS":"546.008","OBJECT_TYPE":"PAYLOAD","GP_ID":"221563118","TIME_SYSTEM":"UTC","TLE_LINE1":"1 48285U 21036K   22361.48654823  .00006080  00000-0  42661-3 0  9999","ARG_OF_PERICENTER":"64.0516","CLASSIFICATION_TYPE":"U","FILE":"3723863","MEAN_ELEMENT_THEORY":"SGP4","DECAY_DATE":null,"NORAD_CAT_ID":"48285","INCLINATION":"53.0552","BSTAR":"0.00042661000000","LAUNCH_DATE":"2021-04-29","ELEMENT_SET_NO":"999","TLE_LINE2":"2 48285  53.0552 285.8877 0001701  64.0516 296.0648 15.06408908 92237","EPOCH":"2022-12-27T11:40:37.767072","SITE":"AFETR","RA_OF_ASC_NODE":"285.8877","OBJECT_ID":"2021-036K","MEAN_MOTION_DOT":"0.00006080","MEAN_MOTION_DDOT":"0.0000000000000","OBJECT_NAME":"STARLINK-2548","SEMIMAJOR_AXIS":"6925.321"},{"ECCENTRICITY":"0.00014670","PERIOD":"95.592","RCS_SIZE":"LARGE","APOAPSIS":"548.203","PERIAPSIS":"546.171","COUNTRY_CODE":"US","TLE_LINE1":"1 48286U 21036L   22361.81553631  .00003770  00000-0  27177-3 0  9990","OBJECT_TYPE":"PAYLOAD","GP_ID":"221622123","TIME_SYSTEM":"UTC","REF_FRAME":"TEME","MEAN_ANOMALY":"261.3493","EPHEMERIS_TYPE":"0","REV_AT_EPOCH":"9228","MEAN_MOTION":"15.06408536","CENTER_NAME":"EARTH","LAUNCH_DATE":"2021-04-29","INCLINATION":"53.0534","BSTAR":"0.00027177000000","MEAN_ELEMENT_THEORY":"SGP4","FILE":"3724149","DECAY_DATE":null,"CLASSIFICATION_TYPE":"U","ARG_OF_PERICENTER":"98.7662","NORAD_CAT_ID":"48286","MEAN_MOTION_DDOT":"0.0000000000000","MEAN_MOTION_DOT":"0.00003770","SEMIMAJOR_AXIS":"6925.322","OBJECT_NAME":"STARLINK-2547","EPOCH":"2022-12-27T19:34:22.337184","TLE_LINE2":"2 48286  53.0534 284.4146 0001467  98.7662 261.3493 15.06408536 92282","SITE":"AFETR","ELEMENT_SET_NO":"999","OBJECT_ID":"2021-036L","RA_OF_ASC_NODE":"284.4146"},{"RCS_SIZE":"LARGE","PERIOD":"95.591","ECCENTRICITY":"0.00015040","APOAPSIS":"548.190","TIME_SYSTEM":"UTC","GP_ID":"221595243","OBJECT_TYPE":"PAYLOAD","TLE_LINE1":"1 48287U 21036M   22361.21472963  .00010469  00000-0  72027-3 0  9990","COUNTRY_CODE":"US","PERIAPSIS":"546.107","CENTER_NAME":"EARTH","MEAN_MOTION":"15.06421146","REV_AT_EPOCH":"9277","EPHEMERIS_TYPE":"0","MEAN_ANOMALY":"275.4223","REF_FRAME":"TEME","BSTAR":"0.00072027000000","INCLINATION":"53.0544","LAUNCH_DATE":"2021-04-29","NORAD_CAT_ID":"48287","ARG_OF_PERICENTER":"84.6938","CLASSIFICATION_TYPE":"U","MEAN_ELEMENT_THEORY":"SGP4","FILE":"3723974","DECAY_DATE":null,"SEMIMAJOR_AXIS":"6925.284","OBJECT_NAME":"STARLINK-2566","MEAN_MOTION_DOT":"0.00010469","MEAN_MOTION_DDOT":"0.0000000000000","RA_OF_ASC_NODE":"287.1190","OBJECT_ID":"2021-036M","ELEMENT_SET_NO":"999","TLE_LINE2":"2 48287  53.0544 287.1190 0001504  84.6938 275.4223 15.06421146 92778","SITE":"AFETR","EPOCH":"2022-12-27T05:09:12.640032"},{"CENTER_NAME":"EARTH","MEAN_MOTION":"15.06413255","REV_AT_EPOCH":"9228","MEAN_ANOMALY":"295.5183","EPHEMERIS_TYPE":"0","REF_FRAME":"TEME","GP_ID":"221621122","OBJECT_TYPE":"PAYLOAD","TIME_SYSTEM":"UTC","TLE_LINE1":"1 48288U 21036N   22361.80721267  .00003857  00000-0  27761-3 0  9998","PERIAPSIS":"546.084","COUNTRY_CODE":"US","APOAPSIS":"548.262","RCS_SIZE":"LARGE","PERIOD":"95.591","ECCENTRICITY":"0.00015730","RA_OF_ASC_NODE":"284.4462","OBJECT_ID":"2021-036N","TLE_LINE2":"2 48288  53.0547 284.4462 0001573  64.5969 295.5183 15.06413255 92287","SITE":"AFETR","EPOCH":"2022-12-27T19:22:23.174688","ELEMENT_SET_NO":"999","OBJECT_NAME":"STARLINK-2562","SEMIMAJOR_AXIS":"6925.308","MEAN_MOTION_DDOT":"0.0000000000000","MEAN_MOTION_DOT":"0.00003857","NORAD_CAT_ID":"48288","CLASSIFICATION_TYPE":"U","ARG_OF_PERICENTER":"64.5969","FILE":"3724149","DECAY_DATE":null,"MEAN_ELEMENT_THEORY":"SGP4","BSTAR":"0.00027761000000","INCLINATION":"53.0547","LAUNCH_DATE":"2021-04-29"},{"REF_FRAME":"TEME","EPHEMERIS_TYPE":"0","MEAN_ANOMALY":"296.3245","MEAN_MOTION":"15.06403852","REV_AT_EPOCH":"9219","CENTER_NAME":"EARTH","COUNTRY_CODE":"US","PERIAPSIS":"546.067","TLE_LINE1":"1 48289U 21036P   22361.20736231 -.00000459  00000-0 -11929-4 0  9997","TIME_SYSTEM":"UTC","GP_ID":"221563618","OBJECT_TYPE":"PAYLOAD","APOAPSIS":"548.336","ECCENTRICITY":"0.00016380","PERIOD":"95.592","RCS_SIZE":"LARGE","ELEMENT_SET_NO":"999","EPOCH":"2022-12-27T04:58:36.103584","TLE_LINE2":"2 48289  53.0549 287.1502 0001638  63.7913 296.3245 15.06403852 92197","SITE":"AFETR","OBJECT_ID":"2021-036P","RA_OF_ASC_NODE":"287.1502","MEAN_MOTION_DOT":"-0.00000459","MEAN_MOTION_DDOT":"0.0000000000000","OBJECT_NAME":"STARLINK-2545","SEMIMAJOR_AXIS":"6925.337","FILE":"3723863","MEAN_ELEMENT_THEORY":"SGP4","DECAY_DATE":null,"ARG_OF_PERICENTER":"63.7913","CLASSIFICATION_TYPE":"U","NORAD_CAT_ID":"48289","LAUNCH_DATE":"2021-04-29","BSTAR":"-0.00001192900000","INCLINATION":"53.0549"},{"BSTAR":"0.00066462000000","INCLINATION":"53.0537","LAUNCH_DATE":"2021-04-29","ARG_OF_PERICENTER":"85.9729","CLASSIFICATION_TYPE":"U","FILE":"3724149","MEAN_ELEMENT_THEORY":"SGP4","DECAY_DATE":null,"NORAD_CAT_ID":"48290","MEAN_MOTION_DOT":"0.00009637","MEAN_MOTION_DDOT":"0.0000000000000","OBJECT_NAME":"STARLINK-2540","SEMIMAJOR_AXIS":"6925.283","ELEMENT_SET_NO":"999","SITE":"AFETR","TLE_LINE2":"2 48290  53.0537 284.4690 0001477  85.9729 274.1429 15.06421243 92288","EPOCH":"2022-12-27T19:13:08.278464","RA_OF_ASC_NODE":"284.4690","OBJECT_ID":"2021-036Q","ECCENTRICITY":"0.00014770","RCS_SIZE":"LARGE","PERIOD":"95.591","APOAPSIS":"548.171","PERIAPSIS":"546.126","COUNTRY_CODE":"US","TIME_SYSTEM":"UTC","GP_ID":"221621623","OBJECT_TYPE":"PAYLOAD","TLE_LINE1":"1 48290U 21036Q   22361.80079026  .00009637  00000-0  66462-3 0  9993","EPHEMERIS_TYPE":"0","MEAN_ANOMALY":"274.1429","REF_FRAME":"TEME","CENTER_NAME":"EARTH","MEAN_MOTION":"15.06421243","REV_AT_EPOCH":"9228"},{"PERIOD":"95.591","RCS_SIZE":"LARGE","ECCENTRICITY":"0.00017780","APOAPSIS":"548.389","TLE_LINE1":"1 48291U 21036R   22361.79710239  .00006420  00000-0  44927-3 0  9999","GP_ID":"221620372","TIME_SYSTEM":"UTC","OBJECT_TYPE":"PAYLOAD","COUNTRY_CODE":"US","PERIAPSIS":"545.926","MEAN_MOTION":"15.06418295","REV_AT_EPOCH":"9228","CENTER_NAME":"EARTH","REF_FRAME":"TEME","MEAN_ANOMALY":"304.2803","EPHEMERIS_TYPE":"0","LAUNCH_DATE":"2021-04-29","BSTAR":"0.00044927000000","INCLINATION":"53.0542","NORAD_CAT_ID":"48291","DECAY_DATE":null,"FILE":"3724149","MEAN_ELEMENT_THEORY":"SGP4","CLASSIFICATION_TYPE":"U","ARG_OF_PERICENTER":"55.8354","OBJECT_NAME":"STARLINK-2555","SEMIMAJOR_AXIS":"6925.292","MEAN_MOTION_DDOT":"0.0000000000000","MEAN_MOTION_DOT":"0.00006420","OBJECT_ID":"2021-036R","RA_OF_ASC_NODE":"284.4844","EPOCH":"2022-12-27T19:07:49.646496","TLE_LINE2":"2 48291  53.0542 284.4844 0001778  55.8354 304.2803 15.06418295 92284","SITE":"AFETR","ELEMENT_SET_NO":"999"},{"OBJECT_ID":"2021-036S","RA_OF_ASC_NODE":"284.6203","ELEMENT_SET_NO":"999","EPOCH":"2022-12-27T19:23:46.677696","TLE_LINE2":"2 48292  53.0543 284.6203 0001465  88.9578 271.1579 15.06415768 92863","SITE":"AFETR","SEMIMAJOR_AXIS":"6925.300","OBJECT_NAME":"STARLINK-2542","MEAN_MOTION_DOT":"0.00004876","MEAN_MOTION_DDOT":"0.0000000000000","NORAD_CAT_ID":"48292","FILE":"3724205","MEAN_ELEMENT_THEORY":"SGP4","DECAY_DATE":null,"ARG_OF_PERICENTER":"88.9578","CLASSIFICATION_TYPE":"U","LAUNCH_DATE":"2021-04-29","INCLINATION":"53.0543","BSTAR":"0.00034584000000","REV_AT_EPOCH":"9286","MEAN_MOTION":"15.06415768","CENTER_NAME":"EARTH","REF_FRAME":"TEME","EPHEMERIS_TYPE":"0","MEAN_ANOMALY":"271.1579","TLE_LINE1":"1 48292U 21036S   22361.80817914  .00004876  00000-0  34584-3 0  9991","GP_ID":"221627230","TIME_SYSTEM":"UTC","OBJECT_TYPE":"PAYLOAD","COUNTRY_CODE":"US","PERIAPSIS":"546.151","APOAPSIS":"548.180","PERIOD":"95.591","RCS_SIZE":"LARGE","ECCENTRICITY":"0.00014650"}];
